NORAD_CAT_ID,OBJECT_NAME,OBJECT_TYPE,EPOCH,MEAN_MOTION,ECCENTRICITY,INCLINATION,RA_OF_ASC_NODE,ARG_OF_PERICENTER,MEAN_ANOMALY,BSTAR,MEAN_MOTION_DOT,MEAN_MOTION_DDOT,TLE_LINE0,TLE_LINE1,TLE_LINE2,SEMIMAJOR_AXIS,PERIOD,APOGEE,PERIGEE,DECAYED
52285.0,STARLINK-3775,PAYLOAD,2023-05-16 17:55:38,15.08845114,0.0002348,53.2171,43.7419,83.9208,276.2051,-2.702e-05,-7.18e-06,0.0,0 STARLINK-3775,1 52285U 22041AA  23136.74697661 -.00000718  00000-0 -27020-4 0  9995,2 52285  53.2171  43.7419 0002348  83.9208 276.2051 15.08845114 59181,6917.865,95.437,541.354,538.105,0.0
52285.0,STARLINK-3775,PAYLOAD,2023-05-17 03:27:57,15.08849446,0.0002095,53.2171,41.9559,89.3276,270.7956,1.6754e-05,-2.2e-07,0.0,0 STARLINK-3775,1 52285U 22041AA  23137.14441251 -.00000022  00000-0  16754-4 0  9991,2 52285  53.2171  41.9559 0002095  89.3276 270.7956 15.08849446 60479,6917.852,95.437,541.166,538.267,0.0
52285.0,STARLINK-3775,PAYLOAD,2023-05-17 20:57:12,15.08833745,0.0002084,53.2161,38.6836,96.2568,263.8661,3.1077e-05,2.06e-06,0.0,0 STARLINK-3775,1 52285U 22041AA  23137.87306198  .00000206  00000-0  31077-4 0  9999,2 52285  53.2161  38.6836 0002084  96.2568 263.8661 15.08833745 59354,6917.9,95.438,541.206,538.323,0.0
52285.0,STARLINK-3775,PAYLOAD,2023-05-18 01:43:21,15.08837186,0.0002029,53.2171,37.7943,89.3839,270.7385,6.3342e-05,7.2e-06,0.0,0 STARLINK-3775,1 52285U 22041AA  23138.07178006  .00000720  00000-0  63342-4 0  9998,2 52285  53.2171  37.7943 0002029  89.3839 270.7385 15.08837186 60611,6917.889,95.438,541.158,538.35,0.0
52285.0,STARLINK-3775,PAYLOAD,2023-05-18 03:18:44,15.08837264,0.0002026,53.217,37.4965,89.4207,270.7018,6.5667e-05,7.57e-06,0.0,0 STARLINK-3775,1 52285U 22041AA  23138.13801994  .00000757  00000-0  65667-4 0  9996,2 52285  53.2170  37.4965 0002026  89.4207 270.7018 15.08837264 59391,6917.889,95.438,541.155,538.352,0.0
52285.0,STARLINK-3775,PAYLOAD,2023-05-18 17:37:13,15.08836537,0.0001936,53.2168,34.8205,88.8879,271.2335,3.8144e-05,3.19e-06,0.0,0 STARLINK-3775,1 52285U 22041AA  23138.73418254  .00000319  00000-0  38144-4 0  9999,2 52285  53.2168  34.8205 0001936  88.8879 271.2335 15.08836537 59483,6917.891,95.438,541.095,538.417,0.0
52285.0,STARLINK-3775,PAYLOAD,2023-05-19 03:09:31,15.0884466,0.0001943,53.2162,33.0363,89.6593,270.4622,0.0001121,1.497e-05,0.0,0 STARLINK-3775,1 52285U 22041AA  23139.13161618  .00001497  00000-0  11210-3 0  9995,2 52285  53.2162  33.0363 0001943  89.6593 270.4622 15.08844660 60773,6917.866,95.437,541.075,538.387,0.0
52285.0,STARLINK-3775,PAYLOAD,2023-05-19 20:38:46,15.08837469,0.000184,53.2165,29.7645,90.9338,269.1865,6.8727e-05,8.06e-06,0.0,0 STARLINK-3775,1 52285U 22041AA  23139.86026343  .00000806  00000-0  68727-4 0  9999,2 52285  53.2165  29.7645 0001840  90.9338 269.1865 15.08837469 59657,6917.888,95.438,541.026,538.48,0.0
52285.0,STARLINK-3775,PAYLOAD,2023-05-19 23:49:32,15.08840062,0.0001732,53.2159,29.1718,92.8392,267.2798,8.3512e-05,1.041e-05,0.0,0 STARLINK-3775,1 52285U 22041AA  23139.99274201  .00001041  00000-0  83512-4 0  9992,2 52285  53.2159  29.1718 0001732  92.8392 267.2798 15.08840062 60903,6917.88,95.438,540.943,538.547,0.0
52285.0,STARLINK-3775,PAYLOAD,2023-05-20 20:29:32,15.08850326,0.0001766,53.2155,25.3051,93.3349,266.7846,0.00013336,1.836e-05,0.0,0 STARLINK-3775,1 52285U 22041AA  23140.85385379  .00001836  00000-0  13336-3 0  9996,2 52285  53.2155  25.3051 0001766  93.3349 266.7846 15.08850326 59801,6917.849,95.437,540.936,538.492,0.0
52285.0,STARLINK-3775,PAYLOAD,2023-05-21 01:15:41,15.08859774,0.0001783,53.2154,24.4132,89.201,270.9186,0.00028195,4.204e-05,0.0,0 STARLINK-3775,1 52285U 22041AA  23141.05256877  .00004204  00000-0  28195-3 0  9990,2 52285  53.2154  24.4132 0001783  89.2010 270.9186 15.08859774 61069,6917.82,95.436,540.918,538.452,0.0
52285.0,STARLINK-3775,PAYLOAD,2023-05-21 02:51:05,15.08862903,0.0001741,53.2149,24.1159,92.8646,267.2546,0.00042283,6.452e-05,0.0,0 STARLINK-3775,1 52285U 22041AA  23141.11880802  .00006452  00000-0  42283-3 0  9999,2 52285  53.2149  24.1159 0001741  92.8646 267.2546 15.08862903 59848,6917.81,95.436,540.88,538.471,0.0
52285.0,STARLINK-3775,PAYLOAD,2023-05-21 15:34:11,15.0883008,0.0002189,53.2149,21.7373,100.0631,260.0608,-0.00010923,-2.026e-05,0.0,0 STARLINK-3775,1 52285U 22041AA  23141.64874423 -.00002026  00000-0 -10923-3 0  9990,2 52285  53.2149  21.7373 0002189 100.0631 260.0608 15.08830080 61150,6917.911,95.438,541.29,538.261,0.0
52285.0,STARLINK-3775,PAYLOAD,2023-05-21 18:44:57,15.08823577,0.0001806,53.2146,21.1423,95.8537,264.2661,-0.00025218,-4.298e-05,0.0,0 STARLINK-3775,1 52285U 22041AA  23141.78122685 -.00004298  00000-0 -25218-3 0  9997,2 52285  53.2146  21.1423 0001806  95.8537 264.2661 15.08823577 59940,6917.931,95.439,541.045,538.546,0.0
52285.0,STARLINK-3775,PAYLOAD,2023-05-22 09:03:26,15.08836001,0.0001621,53.2149,18.4655,104.042,256.0753,0.00051654,7.941e-05,0.0,0 STARLINK-3775,1 52285U 22041AA  23142.37739025  .00007941  00000-0  51654-3 0  9994,2 52285  53.2149  18.4655 0001621 104.0420 256.0753 15.08836001 60037,6917.893,95.438,540.879,538.636,0.0
52285.0,STARLINK-3775,PAYLOAD,2023-05-23 21:37:18,15.0885601,0.0001607,53.215,11.6248,109.5435,250.573,0.00066432,0.00010305,0.0,0 STARLINK-3775,1 52285U 22041AA  23143.90091090  .00010305  00000-0  66432-3 0  9995,2 52285  53.2150  11.6248 0001607 109.5435 250.5730 15.08856010 60263,6917.831,95.437,540.808,538.585,0.0
52285.0,STARLINK-3775,PAYLOAD,2023-05-25 18:08:06,15.08845716,0.000148,53.2154,3.2998,95.7775,264.3386,0.00020377,2.957e-05,0.0,0 STARLINK-3775,1 52285U 22041AA  23145.75562792  .00002957  00000-0  20377-3 0  9994,2 52285  53.2154   3.2998 0001480  95.7775 264.3386 15.08845716 61776,6917.863,95.437,540.752,538.704,0.0
52285.0,STARLINK-3775,PAYLOAD,2023-05-25 21:18:52,15.08848963,0.0001464,53.2158,2.7059,95.3402,264.7757,0.00012696,1.734e-05,0.0,0 STARLINK-3775,1 52285U 22041AA  23145.88810563  .00001734  00000-0  12696-3 0  9997,2 52285  53.2158   2.7059 0001464  95.3402 264.7757 15.08848963 60566,6917.853,95.437,540.731,538.705,0.0
52285.0,STARLINK-3775,PAYLOAD,2023-05-26 13:12:43,15.08841689,0.0001551,53.216,359.7314,79.5905,280.5262,5.9775e-05,6.63e-06,0.0,0 STARLINK-3775,1 52285U 22041AA  23146.55050913  .00000663  00000-0  59775-4 0  9997,2 52285  53.2160 359.7314 0001551  79.5905 280.5262 15.08841689 60663,6917.875,95.437,540.813,538.667,0.0
52285.0,STARLINK-3775,PAYLOAD,2023-05-26 17:58:53,15.08838551,0.0001212,53.2161,358.8374,98.2816,261.8314,7.0426e-06,-1.76e-06,0.0,0 STARLINK-3775,1 52285U 22041AA  23146.74922951 -.00000176  00000-0  70426-5 0  9995,2 52285  53.2161 358.8374 0001212  98.2816 261.8314 15.08838551 61927,6917.885,95.438,540.588,538.911,0.0
52285.0,STARLINK-3775,PAYLOAD,2023-05-26 21:09:39,15.08839029,0.0001341,53.2154,358.242,98.938,261.1764,-1.6921e-05,-5.57e-06,0.0,0 STARLINK-3775,1 52285U 22041AA  23146.88170881 -.00000557  00000-0 -16921-4 0  9990,2 52285  53.2154 358.2420 0001341  98.9380 261.1764 15.08839029 60710,6917.883,95.438,540.676,538.821,0.0
52285.0,STARLINK-3775,PAYLOAD,2023-05-27 21:00:26,15.08850079,0.0001361,53.2142,353.7841,99.6452,260.4694,-9.1051e-05,-1.737e-05,0.0,0 STARLINK-3775,1 52285U 22041AA  23147.87530431 -.00001737  00000-0 -91051-4 0  9999,2 52285  53.2142 353.7841 0001361  99.6452 260.4694 15.08850079 62099,6917.85,95.437,540.656,538.773,0.0
52285.0,STARLINK-3775,PAYLOAD,2023-05-27 22:35:49,15.08845719,0.0001198,53.2147,353.4861,86.5192,273.5937,0.0001367,1.889e-05,0.0,0 STARLINK-3775,1 52285U 22041AA  23147.94154714  .00001889  00000-0  13670-3 0  9999,2 52285  53.2147 353.4861 0001198  86.5192 273.5937 15.08845719 60871,6917.863,95.437,540.557,538.899,0.0
52285.0,STARLINK-3775,PAYLOAD,2023-05-28 20:51:12,15.08867999,0.0001233,53.2152,349.323,88.233,271.8804,-0.00049643,-8.186e-05,0.0,0 STARLINK-3775,1 52285U 22041AA  23148.86889261 -.00008186  00000-0 -49643-3 0  9991,2 52285  53.2152 349.3230 0001233  88.2330 271.8804 15.08867999 62245,6917.795,95.436,540.513,538.807,0.0
52285.0,STARLINK-3775,PAYLOAD,2023-05-29 12:45:05,15.08842378,0.0001313,53.2144,346.3529,82.6339,277.4802,6.8827e-05,8.08e-06,0.0,0 STARLINK-3775,1 52285U 22041AA  23149.53130948  .00000808  00000-0  68827-4 0  9994,2 52285  53.2144 346.3529 0001313  82.6339 277.4802 15.08842378 61119,6917.873,95.437,540.646,538.83,0.0
52285.0,STARLINK-3775,PAYLOAD,2023-05-29 17:31:14,15.08839572,0.0001285,53.215,345.4569,87.6677,272.4463,4.9305e-05,4.97e-06,0.0,0 STARLINK-3775,1 52285U 22041AA  23149.73003180  .00000497  00000-0  49305-4 0  9997,2 52285  53.2150 345.4569 0001285  87.6677 272.4463 15.08839572 62377,6917.882,95.438,540.636,538.858,0.0
52285.0,STARLINK-3775,PAYLOAD,2023-05-29 20:42:01,15.08834028,0.0001361,53.2153,344.8621,93.8567,266.258,0.00026214,3.886e-05,0.0,0 STARLINK-3775,1 52285U 22041AA  23149.86251495  .00003886  00000-0  26214-3 0  9993,2 52285  53.2153 344.8621 0001361  93.8567 266.2580 15.08834028 61162,6917.899,95.438,540.705,538.822,0.0
52285.0,STARLINK-3775,PAYLOAD,2023-05-30 06:14:19,15.08848499,0.0001347,53.2153,343.0775,93.836,266.2786,-0.00028742,-4.86e-05,0.0,0 STARLINK-3775,1 52285U 22041AA  23150.25994625 -.00004860  00000-0 -28742-3 0  9990,2 52285  53.2153 343.0775 0001347  93.8360 266.2786 15.08848499 61220,6917.854,95.437,540.651,538.788,0.0
52285.0,STARLINK-3775,PAYLOAD,2023-05-30 18:57:25,15.08840274,0.0001238,53.2145,340.6995,85.5785,274.5348,9.2902e-05,1.191e-05,0.0,0 STARLINK-3775,1 52285U 22041AA  23150.78987292  .00001191  00000-0  92902-4 0  9992,2 52285  53.2145 340.6995 0001238  85.5785 274.5348 15.08840274 62530,6917.88,95.438,540.601,538.888,0.0
52285.0,STARLINK-3775,PAYLOAD,2023-05-31 06:05:06,15.08842491,0.0001214,53.2147,338.6174,86.8937,273.2194,0.00016715,2.374e-05,0.0,0 STARLINK-3775,1 52285U 22041AA  23151.25355246  .00002374  00000-0  16715-3 0  9994,2 52285  53.2147 338.6174 0001214  86.8937 273.2194 15.08842491 61374,6917.873,95.437,540.578,538.898,0.0
